[{"OBJECT_NAME":"KUIPER-00029","OBJECT_ID":"2025-088U","EPOCH":"2026-03-09T22:00:01.999584","MEAN_MOTION":14.81069355,"ECCENTRICITY":9.383e-5,"INCLINATION":51.9005,"RA_OF_ASC_NODE":89.6043,"ARG_OF_PERICENTER":137.8854,"MEAN_ANOMALY":294.3831,"EPHEMERIS_TYPE":0,"CLASSIFICATION_TYPE":"U","NORAD_CAT_ID":63742,"ELEMENT_SET_NO":999,"REV_AT_EPOCH":574,"BSTAR":0.002151491,"MEAN_MOTION_DOT":0.00016671,"MEAN_MOTION_DDOT":0},{"OBJECT_NAME":"FENGYUN 1C DEB","OBJECT_ID":"1999-025AKD","EPOCH":"2026-03-09T22:29:24.185472","MEAN_MOTION":14.55951591,"ECCENTRICITY":0.01160055,"INCLINATION":98.89,"RA_OF_ASC_NODE":59.9529,"ARG_OF_PERICENTER":11.2931,"MEAN_ANOMALY":349.0827,"EPHEMERIS_TYPE":0,"CLASSIFICATION_TYPE":"U","NORAD_CAT_ID":30539,"ELEMENT_SET_NO":999,"REV_AT_EPOCH":612,"BSTAR":0.00083831096,"MEAN_MOTION_DOT":3.979e-5,"MEAN_MOTION_DDOT":0}]
